NORAD_CAT_ID,OBJECT_NAME,OBJECT_TYPE,EPOCH,MEAN_MOTION,ECCENTRICITY,INCLINATION,RA_OF_ASC_NODE,ARG_OF_PERICENTER,MEAN_ANOMALY,BSTAR,MEAN_MOTION_DOT,MEAN_MOTION_DDOT,TLE_LINE0,TLE_LINE1,TLE_LINE2,SEMIMAJOR_AXIS,PERIOD,APOGEE,PERIGEE,DECAYED
53850.0,STARLINK-4767,PAYLOAD,2022-11-29 22:00:00,15.49731316,0.0001049,53.2169,264.1871,88.61,190.7691,-0.017717,-0.00919908,0.0,0 STARLINK-4767,1 53850U 22114AJ  22333.91667824 -.00919908  00000-0 -17717-1 0  9999,2 53850  53.2169 264.1871 0001049  88.6100 190.7691 15.49731316  1302,6795.648,92.919,418.226,416.801,0.0
53850.0,STARLINK-4767,PAYLOAD,2022-11-30 06:00:00,15.49068916,0.0001067,53.2175,262.597,81.7958,257.9226,-0.022621,-0.0112529,0.0,0 STARLINK-4767,1 53850U 22114AJ  22334.25001157 -.01125290  00000-0 -22621-1 0  9992,2 53850  53.2175 262.5970 0001067  81.7958 257.9226 15.49068916 11924,6797.5859999999975,92.959,420.176,418.725,0.0
53850.0,STARLINK-4767,PAYLOAD,2022-11-30 14:00:01,15.48255773,0.0001036,53.2175,261.0048,80.7143,318.5067,-0.023312,-0.01143302,0.0,0 STARLINK-4767,1 53850U 22114AJ  22334.58335648 -.01143302  00000-0 -23312-1 0  9995,2 53850  53.2175 261.0048 0001036  80.7143 318.5067 15.48255773  1301,6799.965,93.008,422.535,421.126,0.0
53850.0,STARLINK-4767,PAYLOAD,2022-11-30 22:00:00,15.47443628,0.0001181,53.2176,259.4172,77.7108,19.9037,-0.024038,-0.01145621,0.0,0 STARLINK-4767,1 53850U 22114AJ  22334.91667824 -.01145621  00000-0 -24038-1 0  9998,2 53850  53.2176 259.4172 0001181  77.7108  19.9037 15.47443628 12037,6802.344,93.057,425.013,423.406,0.0
53850.0,STARLINK-4767,PAYLOAD,2022-12-01 14:00:01,15.45813837,0.0001279,53.2174,256.2461,97.7844,113.8156,-0.025327,-0.01140992,0.0,0 STARLINK-4767,1 53850U 22114AJ  22335.58334491 -.01140992  00000-0 -25327-1 0  9991,2 53850  53.2174 256.2461 0001279  97.7844 113.8156 15.45813837  1303,6807.125,93.155,429.86,428.119,0.0
53850.0,STARLINK-4767,PAYLOAD,2022-12-01 22:00:00,15.44978942,0.0001136,53.2166,254.664,102.1879,164.9481,-0.025365,-0.01112769,0.0,0 STARLINK-4767,1 53850U 22114AJ  22335.91667824 -.01112769  00000-0 -25365-1 0  9990,2 53850  53.2166 254.6640 0001136 102.1879 164.9481 15.44978942 12180,6809.5769999999975,93.205,432.216,430.668,0.0
53850.0,STARLINK-4767,PAYLOAD,2022-12-02 14:00:01,15.43372969,0.0001059,53.217,251.505,83.5551,291.6874,-0.027557,-0.01141683,0.0,0 STARLINK-4767,1 53850U 22114AJ  22336.58334491 -.01141683  00000-0 -27557-1 0  9997,2 53850  53.2170 251.5050 0001059  83.5551 291.6874 15.43372969  1301,6814.3,93.302,436.887,435.443,0.0
53850.0,STARLINK-4767,PAYLOAD,2022-12-02 16:00:00,15.43170145,0.0001212,53.2172,251.1103,81.6975,36.7848,-0.027788,-0.01143246,0.0,0 STARLINK-4767,1 53850U 22114AJ  22336.66667824 -.01143246  00000-0 -27788-1 0  9998,2 53850  53.2172 251.1103 0001212  81.6975  36.7848 15.43170145 12301,6814.897,93.314,437.588,435.936,0.0
53850.0,STARLINK-4767,PAYLOAD,2022-12-02 22:00:00,15.42594615,0.0001135,53.2168,249.9286,87.7861,340.0303,-0.029577,-0.01188916,0.0,0 STARLINK-4767,1 53850U 22114AJ  22336.91667824 -.01188916  00000-0 -29577-1 0  9997,2 53850  53.2168 249.9286 0001135  87.7861 340.0303 15.42594615  1304,6816.592,93.349,439.231,437.6830000000001,0.0
53850.0,STARLINK-4767,PAYLOAD,2022-12-03 14:00:01,15.40933145,0.0001307,53.2171,246.7811,75.2613,94.8225,-0.029943,-0.01142585,0.0,0 STARLINK-4767,1 53850U 22114AJ  22337.58334491 -.01142585  00000-0 -29943-1 0  9991,2 53850  53.2171 246.7811 0001307  75.2613  94.8225 15.40933145 12442,6821.491,93.45,444.24800000000016,442.464,0.0
53850.0,STARLINK-4767,PAYLOAD,2022-12-03 22:00:00,15.4013949,0.0001298,53.217,245.2108,89.1196,130.6124,-0.031549,-0.01169828,0.0,0 STARLINK-4767,1 53850U 22114AJ  22337.91667824 -.01169828  00000-0 -31549-1 0  9991,2 53850  53.2170 245.2108 0001298  89.1196 130.6124 15.40139490  1304,6823.834,93.498,446.585,444.814,0.0
53850.0,STARLINK-4767,PAYLOAD,2022-12-04 14:00:01,15.38504101,0.0001076,53.2171,242.0748,73.8346,242.2838,-0.032926,-0.01157703,0.0,0 STARLINK-4767,1 53850U 22114AJ  22338.58334491 -.01157703  00000-0 -32926-1 0  9995,2 53850  53.2171 242.0748 0001076  73.8346 242.2838 15.38504101  1305,6828.669,93.597,451.269,449.799,0.0
53850.0,STARLINK-4767,PAYLOAD,2022-12-04 22:00:00,15.37713776,0.0001111,53.2172,240.5103,94.6835,268.1471,-0.034774,-0.01188394,0.0,0 STARLINK-4767,1 53850U 22114AJ  22338.91667824 -.01188394  00000-0 -34774-1 0  9994,2 53850  53.2172 240.5103 0001111  94.6835 268.1471 15.37713776  1307,6831.009,93.646,453.633,452.115,0.0
53850.0,STARLINK-4767,PAYLOAD,2022-12-05 14:00:01,15.3605041,0.0001213,53.2172,237.3856,66.6181,26.8118,-0.035133,-0.0114181,0.0,0 STARLINK-4767,1 53850U 22114AJ  22339.58335648 -.01141810  00000-0 -35133-1 0  9996,2 53850  53.2172 237.3856 0001213  66.6181  26.8118 15.36050410  1307,6835.939,93.747,458.633,456.975,0.0
53850.0,STARLINK-4767,PAYLOAD,2022-12-05 16:00:00,15.35845936,0.0001346,53.2173,236.9955,74.1925,120.2135,-0.035323,-0.01140571,0.0,0 STARLINK-4767,1 53850U 22114AJ  22339.66667824 -.01140571  00000-0 -35323-1 0  9993,2 53850  53.2173 236.9955 0001346  74.1925 120.2135 15.35845936 12764,6836.545999999999,93.759,459.331,457.491,0.0
53850.0,STARLINK-4767,PAYLOAD,2022-12-05 22:00:01,15.35234042,0.0001382,53.2176,235.8277,66.1761,71.0455,-0.035931,-0.01137802,0.0,0 STARLINK-4767,1 53850U 22114AJ  22339.91668981 -.01137802  00000-0 -35931-1 0  9994,2 53850  53.2176 235.8277 0001382  66.1761  71.0455 15.35234042  1307,6838.361999999999,93.797,461.172,459.282,0.0
53850.0,STARLINK-4767,PAYLOAD,2022-12-06 14:00:01,15.3361152,0.0001325,53.2169,232.71400000000003,77.9992,143.8693,-0.038085,-0.01144327,0.0,0 STARLINK-4767,1 53850U 22114AJ  22340.58335648 -.01144327  00000-0 -38085-1 0  9993,2 53850  53.2169 232.7140 0001325  77.9992 143.8693 15.33611520  1307,6843.185,93.896,465.956,464.143,0.0
53850.0,STARLINK-4767,PAYLOAD,2022-12-06 16:00:00,15.33402788,0.0001206,53.2174,232.3255,79.2559,242.857,-0.038058,-0.01136638,0.0,0 STARLINK-4767,1 53850U 22114AJ  22340.66667824 -.01136638  00000-0 -38058-1 0  9992,2 53850  53.2174 232.3255 0001206  79.2559 242.8570 15.33402788 12915,6843.806,93.909,466.496,464.845,0.0
53850.0,STARLINK-4767,PAYLOAD,2022-12-06 22:00:00,15.3282119,0.0001302,53.2169,231.1618,99.8917,162.7573,-0.040169,-0.01174095,0.0,0 STARLINK-4767,1 53850U 22114AJ  22340.91667824 -.01174095  00000-0 -40169-1 0  9995,2 53850  53.2169 231.1618 0001302  99.8917 162.7573 15.32821190  1307,6845.5369999999975,93.944,468.293,466.511,0.0
53850.0,STARLINK-4767,PAYLOAD,2022-12-07 14:00:01,15.3118027,0.0001102,53.2169,228.0599,80.5772,260.8614,-0.041635,-0.01157161,0.0,0 STARLINK-4767,1 53850U 22114AJ  22341.58334491 -.01157161  00000-0 -41635-1 0  9994,2 53850  53.2169 228.0599 0001102  80.5772 260.8614 15.31180270 13051,6850.427,94.045,473.047,471.537,0.0
53850.0,STARLINK-4767,PAYLOAD,2022-12-08 00:00:00,15.30151501,0.0001264999999999,53.2172,226.1273,90.376,28.32,-0.042376,-0.01141966,0.0,0 STARLINK-4767,1 53850U 22114AJ  22342.00001157 -.01141966  00000-0 -42376-1 0  9991,2 53850  53.2172 226.1273 0001265  90.3760  28.3200 15.30151501  1306,6853.496999999999,94.108,476.229,474.495,0.0
53850.0,STARLINK-4767,PAYLOAD,2022-12-08 14:00:01,15.28741513,0.0001225,53.2167,223.4228,74.3561,17.92,-0.045064,-0.01160589,0.0,0 STARLINK-4767,1 53850U 22114AJ  22342.58334491 -.01160589  00000-0 -45064-1 0  9993,2 53850  53.2167 223.4228 0001225  74.3561  17.9200 15.28741513  1306,6857.71,94.195,480.415,478.735,0.0
53850.0,STARLINK-4767,PAYLOAD,2022-12-08 22:00:01,15.27910201,0.0001371,53.2174,221.8824,71.267,56.07100000000001,-0.045176,-0.01136392,0.0,0 STARLINK-4767,1 53850U 22114AJ  22342.91668981 -.01136392  00000-0 -45176-1 0  9993,2 53850  53.2174 221.8824 0001371  71.2670  56.0710 15.27910201  1308,6860.198,94.246,483.003,481.122,0.0
53850.0,STARLINK-4767,PAYLOAD,2022-12-09 00:00:00,15.27706706,0.0001345,53.2172,221.4975,96.7395,129.1295,-0.045443,-0.01136015,0.0,0 STARLINK-4767,1 53850U 22114AJ  22343.00001157 -.01136015  00000-0 -45443-1 0  9999,2 53850  53.2172 221.4975 0001345  96.7395 129.1295 15.27706706 13278,6860.807,94.259,483.594,481.749,0.0
53850.0,STARLINK-4767,PAYLOAD,2022-12-09 14:00:01,15.26320077,0.0001379,53.2165,218.8031,83.5255,110.779,-0.049766,-0.01203816,0.0,0 STARLINK-4767,1 53850U 22114AJ  22343.58334491 -.01203816  00000-0 -49766-1 0  9998,2 53850  53.2165 218.8031 0001379  83.5255 110.7790 15.26320077  1308,6864.9609999999975,94.345,487.773,485.88,0.0
53850.0,STARLINK-4767,PAYLOAD,2022-12-10 00:00:00,15.25272654,0.0001291,53.2171,216.8851,101.0478,223.1888,-0.049419,-0.01161526,0.0,0 STARLINK-4767,1 53850U 22114AJ  22344.00001157 -.01161526  00000-0 -49419-1 0  9992,2 53850  53.2171 216.8851 0001291 101.0478 223.1888 15.25272654 13428,6868.104,94.409,490.856,489.082,0.0
53850.0,STARLINK-4767,PAYLOAD,2022-12-10 14:00:01,15.23840114,0.0001341999999999,53.2174,214.2002,108.7548,178.8055,-0.050991,-0.0114895,0.0,0 STARLINK-4767,1 53850U 22114AJ  22344.58334491 -.01148950  00000-0 -50991-1 0  9998,2 53850  53.2174 214.2002 0001342 108.7548 178.8055 15.23840114  1306,6872.408,94.498,495.195,493.35,0.0
53850.0,STARLINK-4767,PAYLOAD,2022-12-11 00:00:00,15.2282521,0.0001223,53.2175,212.2898,78.6106,335.1988,-0.052724,-0.01152227,0.0,0 STARLINK-4767,1 53850U 22114AJ  22345.00001157 -.01152227  00000-0 -52724-1 0  9994,2 53850  53.2175 212.2898 0001223  78.6106 335.1988 15.22825210 13586,6875.4609999999975,94.561,498.167,496.485,0.0
53850.0,STARLINK-4767,PAYLOAD,2022-12-11 14:00:01,15.21397513,0.0001206,53.2173,209.615,105.4536,266.5435,-0.054691,-0.01146155,0.0,0 STARLINK-4767,1 53850U 22114AJ  22345.58334491 -.01146155  00000-0 -54691-1 0  9995,2 53850  53.2173 209.6150 0001206 105.4536 266.5435 15.21397513  1302,6879.761,94.65,502.456,500.797,0.0
